NORAD_CAT_ID,OBJECT_NAME,OBJECT_TYPE,EPOCH,MEAN_MOTION,ECCENTRICITY,INCLINATION,RA_OF_ASC_NODE,ARG_OF_PERICENTER,MEAN_ANOMALY,BSTAR,MEAN_MOTION_DOT,MEAN_MOTION_DDOT,TLE_LINE0,TLE_LINE1,TLE_LINE2,SEMIMAJOR_AXIS,PERIOD,APOGEE,PERIGEE,DECAYED
52487.0,STARLINK-3902,PAYLOAD,2022-06-26 14:00:01,15.73225159,0.0001803,53.2153,13.0184,40.1899,209.0323,-0.00035856,-0.00050697,0.0,0 STARLINK-3902,1 52487U 22049AN  22177.58335648 -.00050697  00000-0 -35856-3 0  9993,2 52487  53.2153  13.0184 0001803  40.1899 209.0323 15.73225159  8228,6727.823,91.532,350.901,348.475,0.0
52487.0,STARLINK-3902,PAYLOAD,2022-06-26 22:00:00,15.73148168,0.0002131,53.2148,11.3709,38.0552,300.0495,0.00051065,0.00071502,0.0,0 STARLINK-3902,1 52487U 22049AN  22177.91667824  .00071502  00000-0  51065-3 0  9990,2 52487  53.2148  11.3709 0002131  38.0552 300.0495 15.73148168  1301,6728.043000000002,91.536,351.342,348.474,0.0
52487.0,STARLINK-3902,PAYLOAD,2022-06-27 06:00:00,15.73231406,0.0001862,53.2144,9.7198,36.569,30.4304,-0.00056553,-0.00079356,0.0,0 STARLINK-3902,1 52487U 22049AN  22178.25001157 -.00079356  00000-0 -56553-3 0  9993,2 52487  53.2144   9.7198 0001862  36.5690  30.4304 15.73231406  8337,6727.806,91.531,350.923,348.418,0.0
52487.0,STARLINK-3902,PAYLOAD,2022-06-27 14:00:01,15.73171621,0.0001681,53.2147,8.0698,35.5425,120.3891,0.00033607,0.00046751,0.0,0 STARLINK-3902,1 52487U 22049AN  22178.58334491  .00046751  00000-0  33607-3 0  9995,2 52487  53.2147   8.0698 0001681  35.5425 120.3891 15.73171621  1303,6727.976,91.535,350.972,348.71,0.0
52487.0,STARLINK-3902,PAYLOAD,2022-06-27 22:00:00,15.73193761,0.0001885,53.2148,6.4223,27.2634,217.5704,-0.00016472,-0.00023668,0.0,0 STARLINK-3902,1 52487U 22049AN  22178.91667824 -.00023668  00000-0 -16472-3 0  9996,2 52487  53.2148   6.4223 0001885  27.2634 217.5704 15.73193761  8438,6727.913000000001,91.534,351.046,348.51,0.0
52487.0,STARLINK-3902,PAYLOAD,2022-06-28 14:00:01,15.73178805,0.0001715,53.2151,3.1213,28.5744,34.0226,4.5604e-05,5.779e-05,0.0,0 STARLINK-3902,1 52487U 22049AN  22179.58334491  .00005779  00000-0  45604-4 0  9992,2 52487  53.2151   3.1213 0001715  28.5744  34.0226 15.73178805  1305,6727.956,91.534,350.974,348.667,0.0
52487.0,STARLINK-3902,PAYLOAD,2022-06-28 22:00:00,15.73178066,0.0001962,53.2147,1.4735,23.5012,128.0355,0.00056115,0.00078804,0.0,0 STARLINK-3902,1 52487U 22049AN  22179.91667824  .00078804  00000-0  56115-3 0  9995,2 52487  53.2147   1.4735 0001962  23.5012 128.0355 15.73178066  8591,6727.958000000001,91.534,351.14300000000014,348.50300000000016,0.0
52487.0,STARLINK-3902,PAYLOAD,2022-06-29 14:00:01,15.73285433,0.0001764999999999,53.2147,358.1724,29.8463,299.5702,-0.0006508999999999,-0.00091323,0.0,0 STARLINK-3902,1 52487U 22049AN  22180.58334491 -.00091323  00000-0 -65090-3 0  9996,2 52487  53.2147 358.1724 0001765  29.8463 299.5702 15.73285433  8699,6727.651999999999,91.528,350.704,348.329,0.0
52487.0,STARLINK-3902,PAYLOAD,2022-06-29 22:00:00,15.73176772,0.0002068,53.2148,356.5245,29.6066,28.803,0.00055575,0.00078029,0.0,0 STARLINK-3902,1 52487U 22049AN  22180.91667824  .00078029  00000-0  55575-3 0  9995,2 52487  53.2148 356.5245 0002068  29.6066  28.8030 15.73176772  1307,6727.9609999999975,91.535,351.218,348.435,0.0
52487.0,STARLINK-3902,PAYLOAD,2022-06-30 06:00:00,15.73229818,0.0001966,53.2151,354.8729,32.4077,114.9389,1.5383e-07,-6e-06,0.0,0 STARLINK-3902,1 52487U 22049AN  22181.25001157 -.00000600  00000-0  15383-6 0  9991,2 52487  53.2151 354.8729 0001966  32.4077 114.9389 15.73229818  8805,6727.81,91.531,350.99800000000016,348.352,0.0
52487.0,STARLINK-3902,PAYLOAD,2022-06-30 14:00:01,15.73230242,0.0002132,53.2153,353.2235,37.9499,198.362,-0.00033063,-0.0004683,0.0,0 STARLINK-3902,1 52487U 22049AN  22181.58334491 -.00046830  00000-0 -33063-3 0  9995,2 52487  53.2153 353.2235 0002132  37.9499 198.3620 15.73230242  1301,6727.809,91.531,351.108,348.24,0.0
52487.0,STARLINK-3902,PAYLOAD,2022-06-30 22:00:00,15.73182137,0.0002366,53.2148,351.5756,34.5343,290.7302,0.00052405,0.00073522,0.0,0 STARLINK-3902,1 52487U 22049AN  22181.91667824  .00073522  00000-0  52405-3 0  9998,2 52487  53.2148 351.5756 0002366  34.5343 290.7302 15.73182137  1307,6727.946,91.534,351.403,348.219,0.0
52487.0,STARLINK-3902,PAYLOAD,2022-07-01 06:00:00,15.73230142,0.0002021,53.2148,349.9239,34.5707,19.6357,-0.00041583,-0.00058655,0.0,0 STARLINK-3902,1 52487U 22049AN  22182.25001157 -.00058655  00000-0 -41583-3 0  9994,2 52487  53.2148 349.9239 0002021  34.5707  19.6357 15.73230142  8963,6727.809,91.531,351.034,348.315,0.0
52487.0,STARLINK-3902,PAYLOAD,2022-07-01 14:00:01,15.73191596,0.0002018,53.215,348.2748,33.5231,109.6086,1.3754e-06,-4.28e-06,0.0,0 STARLINK-3902,1 52487U 22049AN  22182.58334491 -.00000428  00000-0  13754-5 0  9995,2 52487  53.2150 348.2748 0002018  33.5231 109.6086 15.73191596  1309,6727.919,91.534,351.142,348.426,0.0
52487.0,STARLINK-3902,PAYLOAD,2022-07-01 22:00:00,15.73185834,0.0002179,53.215,346.6269,26.741,205.3196,0.00038837,0.00054207,0.0,0 STARLINK-3902,1 52487U 22049AN  22182.91667824  .00054207  00000-0  38837-3 0  9991,2 52487  53.2150 346.6269 0002179  26.7410 205.3196 15.73185834  9065,6727.936,91.534,351.267,348.335,0.0
52487.0,STARLINK-3902,PAYLOAD,2022-07-02 14:00:01,15.73203996,0.0002061,53.2156,343.3264,26.2388,23.6683,-4.7422e-05,-7.273e-05,0.0,0 STARLINK-3902,1 52487U 22049AN  22183.58334491 -.00007273  00000-0 -47422-4 0  9990,2 52487  53.2156 343.3264 0002061  26.2388  23.6683 15.73203996  1300,6727.884,91.533,351.135,348.362,0.0
52487.0,STARLINK-3902,PAYLOAD,2022-07-02 22:00:00,15.73215744,0.0002285,53.215,341.6781,22.4125,116.4672,0.00068553,0.00096776,0.0,0 STARLINK-3902,1 52487U 22049AN  22183.91667824  .00096776  00000-0  68553-3 0  9997,2 52487  53.2150 341.6781 0002285  22.4125 116.4672 15.73215744  1307,6727.85,91.532,351.25300000000016,348.17800000000005,0.0
52487.0,STARLINK-3902,PAYLOAD,2022-07-03 00:00:00,15.7325314,0.0002259,53.2148,341.2652,22.2391,228.8751,0.00029654,0.00041299,0.0,0 STARLINK-3902,1 52487U 22049AN  22184.00001157  .00041299  00000-0  29654-3 0  9998,2 52487  53.2148 341.2652 0002259  22.2391 228.8751 15.73253140  9239,6727.744000000002,91.53,351.12800000000016,348.089,0.0
52487.0,STARLINK-3902,PAYLOAD,2022-07-03 14:00:01,15.73290424,0.0002148,53.2153,338.3777,26.7021,290.1645,-0.0010597,-0.00147356,0.0,0 STARLINK-3902,1 52487U 22049AN  22184.58334491 -.00147356  00000-0 -10597-2 0  9999,2 52487  53.2153 338.3777 0002148  26.7021 290.1645 15.73290424  1306,6727.637,91.528,350.94699999999995,348.057,0.0
52487.0,STARLINK-3902,PAYLOAD,2022-07-03 22:00:00,15.73168502,0.0002352,53.215,336.7293,22.3745,23.4484,-0.00062883,-0.00087853,0.0,0 STARLINK-3902,1 52487U 22049AN  22184.91667824 -.00087853  00000-0 -62883-3 0  9996,2 52487  53.2150 336.7293 0002352  22.3745  23.4484 15.73168502  1309,6727.985,91.535,351.432,348.26800000000014,0.0
52487.0,STARLINK-3902,PAYLOAD,2022-07-04 14:00:01,15.73112847,0.000237,53.2157,333.4297,28.8755,194.5681,0.00051288,0.00071712,0.0,0 STARLINK-3902,1 52487U 22049AN  22185.58334491  .00071712  00000-0  51288-3 0  9993,2 52487  53.2157 333.4297 0002370  28.8755 194.5681 15.73112847  1306,6728.144,91.538,351.603,348.414,0.0
52487.0,STARLINK-3902,PAYLOAD,2022-07-04 22:00:00,15.73181423,0.0002601,53.215,331.7813,26.4781,285.8502,0.00048053,0.00067314,0.0,0 STARLINK-3902,1 52487U 22049AN  22185.91667824  .00067314  00000-0  48053-3 0  9998,2 52487  53.2150 331.7813 0002601  26.4781 285.8502 15.73181423  9539,6727.948,91.534,351.56300000000016,348.06300000000016,0.0
52487.0,STARLINK-3902,PAYLOAD,2022-07-05 14:00:01,15.73280941,0.0002424,53.2152,328.4815,27.2236,102.9759,-0.00069794,-0.00097796,0.0,0 STARLINK-3902,1 52487U 22049AN  22186.58334491 -.00097796  00000-0 -69794-3 0  9997,2 52487  53.2152 328.4815 0002424  27.2236 102.9759 15.73280941  9643,6727.6640000000025,91.528,351.16,347.899,0.0
52487.0,STARLINK-3902,PAYLOAD,2022-07-05 22:00:00,15.73221864,0.0002468,53.2148,326.8325,20.1403,199.0466,-3.09e-05,-4.961e-05,0.0,0 STARLINK-3902,1 52487U 22049AN  22186.91667824 -.00004961  00000-0 -30900-4 0  9993,2 52487  53.2148 326.8325 0002468  20.1403 199.0466 15.73221864  9698,6727.833000000001,91.532,351.358,348.037,0.0
52487.0,STARLINK-3902,PAYLOAD,2022-07-06 14:00:01,15.73208796,0.0002476,53.2154,323.5327,19.6825,17.3629,-2.7936e-05,-4.543e-05,0.0,0 STARLINK-3902,1 52487U 22049AN  22187.58334491 -.00004543  00000-0 -27936-4 0  9999,2 52487  53.2154 323.5327 0002476  19.6825  17.3629 15.73208796  1303,6727.87,91.533,351.401,348.069,0.0
52487.0,STARLINK-3902,PAYLOAD,2022-07-06 16:00:00,15.73200312,0.0002575,53.2153,323.1208,19.4733,129.808,0.00013695,0.00018643,0.0,0 STARLINK-3902,1 52487U 22049AN  22187.66667824  .00018643  00000-0  13695-3 0  9997,2 52487  53.2153 323.1208 0002575  19.4733 129.8080 15.73200312  9812,6727.894,91.533,351.492,348.027,0.0
52487.0,STARLINK-3902,PAYLOAD,2022-07-06 22:00:00,15.73216753,0.0002634999999999,53.2149,321.8837,18.2542,107.7248,0.00022739,0.00031437,0.0,0 STARLINK-3902,1 52487U 22049AN  22187.91667824  .00031437  00000-0  22739-3 0  9990,2 52487  53.2149 321.8837 0002635  18.2542 107.7248 15.73216753  1305,6727.847,91.532,351.485,347.94,0.0
52487.0,STARLINK-3902,PAYLOAD,2022-07-07 12:42:48,15.73257424,0.0002617,53.2152,318.8489,18.4845,341.6269999999999,0.00024107,0.00033433,0.0,0 STARLINK-3902,1 52487U 22049AN  22188.52973205  .00033433  00000-0  24107-3 0  9990,2 52487  53.2152 318.8489 0002617  18.4845 341.6270 15.73257424 11031,6727.731,91.53,351.357,347.836,0.0
52487.0,STARLINK-3902,PAYLOAD,2022-07-07 22:00:00,15.73213469,0.0002766,53.215,316.9339,19.677,13.2421,-0.0001484,-0.00021413,0.0,0 STARLINK-3902,1 52487U 22049AN  22188.91667824 -.00021413  00000-0 -14840-3 0  9990,2 52487  53.2150 316.9339 0002766  19.6770  13.2421 15.73213469 10015,6727.857,91.532,351.583,347.861,0.0
